{"fetched_at":"2026-07-08T07:03:34.892Z","source":"https://celestrak.org/NORAD/elements/gp.php?GROUP=oneweb&FORMAT=JSON","constellation":"oneweb","records":[{"OBJECT_NAME":"ONEWEB-0387","OBJECT_ID":"2021-090AL","EPOCH":"2026-07-07T17:54:37.044576","CLASSIFICATION_TYPE":"U","MEAN_MOTION":13.20773707,"ECCENTRICITY":0.0002131,"INCLINATION":87.9181,"RA_OF_ASC_NODE":270.3549,"ARG_OF_PERICENTER":89.5776,"MEAN_ANOMALY":270.5601,"EPHEMERIS_TYPE":0,"NORAD_CAT_ID":49313,"ELEMENT_SET_NO":999,"REV_AT_EPOCH":23253,"BSTAR":0.000034325,"MEAN_MOTION_DOT":2.7e-7,"MEAN_MOTION_DDOT":0},{"OBJECT_NAME":"ONEWEB-0388","OBJECT_ID":"2021-090AM","EPOCH":"2026-07-07T17:26:30.596064","CLASSIFICATION_TYPE":"U","MEAN_MOTION":13.19726786,"ECCENTRICITY":0.0001919,"INCLINATION":87.9196,"RA_OF_ASC_NODE":300.8799,"ARG_OF_PERICENTER":99.0597,"MEAN_ANOMALY":261.0753,"EPHEMERIS_TYPE":0,"NORAD_CAT_ID":49314,"ELEMENT_SET_NO":999,"REV_AT_EPOCH":22912,"BSTAR":0.00025418,"MEAN_MOTION_DOT":0.00000115,"MEAN_MOTION_DDOT":0},{"OBJECT_NAME":"ONEWEB-0389","OBJECT_ID":"2021-132A","EPOCH":"2026-07-07T11:22:05.113920","CLASSIFICATION_TYPE":"U","MEAN_MOTION":13.17650228,"ECCENTRICITY":0.0001863,"INCLINATION":87.9139,"RA_OF_ASC_NODE":1.8316,"ARG_OF_PERICENTER":81.5049,"MEAN_ANOMALY":278.6294,"EPHEMERIS_TYPE":0,"NORAD_CAT_ID":50469,"ELEMENT_SET_NO":999,"REV_AT_EPOCH":22075,"BSTAR":0.00013588816,"MEAN_MOTION_DOT":6.6e-7,"MEAN_MOTION_DDOT":0},{"OBJECT_NAME":"ONEWEB-0390","OBJECT_ID":"2021-132B","EPOCH":"2026-07-06T22:39:04.745088","CLASSIFICATION_TYPE":"U","MEAN_MOTION":13.17650617,"ECCENTRICITY":0.0002085,"INCLINATION":87.9138,"RA_OF_ASC_NODE":1.9381,"ARG_OF_PERICENTER":91.546,"MEAN_ANOMALY":268.591,"EPHEMERIS_TYPE":0,"NORAD_CAT_ID":50470,"ELEMENT_SET_NO":999,"REV_AT_EPOCH":22068,"BSTAR":0.00017492305,"MEAN_MOTION_DOT":8.1e-7,"MEAN_MOTION_DDOT":0},{"OBJECT_NAME":"ONEWEB-0391","OBJECT_ID":"2021-132C","EPOCH":"2026-07-06T22:41:30.627168","CLASSIFICATION_TYPE":"U","MEAN_MOTION":13.17649811,"ECCENTRICITY":0.00023331,"INCLINATION":87.9139,"RA_OF_ASC_NODE":1.9474,"ARG_OF_PERICENTER":72.7199,"MEAN_ANOMALY":287.4188,"EPHEMERIS_TYPE":0,"NORAD_CAT_ID":50471,"ELEMENT_SET_NO":999,"REV_AT_EPOCH":22068,"BSTAR":0.000001136165,"MEAN_MOTION_DOT":1.3e-7,"MEAN_MOTION_DDOT":0},{"OBJECT_NAME":"ONEWEB-0392","OBJECT_ID":"2021-132D","EPOCH":"2026-07-07T10:21:20.688480","CLASSIFICATION_TYPE":"U","MEAN_MOTION":13.17649993,"ECCENTRICITY":0.00019355,"INCLINATION":87.9147,"RA_OF_ASC_NODE":1.8207,"ARG_OF_PERICENTER":79.5074,"MEAN_ANOMALY":280.6276,"EPHEMERIS_TYPE":0,"NORAD_CAT_ID":50472,"ELEMENT_SET_NO":999,"REV_AT_EPOCH":22078,"BSTAR":2.29954e-7,"MEAN_MOTION_DOT":1.3e-7,"MEAN_MOTION_DDOT":0},{"OBJECT_NAME":"ONEWEB-0393","OBJECT_ID":"2021-132E","EPOCH":"2026-07-07T09:46:05.829888","CLASSIFICATION_TYPE":"U","MEAN_MOTION":13.17647584,"ECCENTRICITY":0.00018837,"INCLINATION":87.9139,"RA_OF_ASC_NODE":1.8411,"ARG_OF_PERICENTER":86.333,"MEAN_ANOMALY":273.8017,"EPHEMERIS_TYPE":0,"NORAD_CAT_ID":50473,"ELEMENT_SET_NO":999,"REV_AT_EPOCH":22077,"BSTAR":0.00012214753,"MEAN_MOTION_DOT":6e-7,"MEAN_MOTION_DDOT":0},{"OBJECT_NAME":"ONEWEB-0394","OBJECT_ID":"2021-132F","EPOCH":"2026-07-07T08:34:15.659616","CLASSIFICATION_TYPE":"U","MEAN_MOTION":13.18683995,"ECCENTRICITY":0.0001734,"INCLINATION":87.9191,"RA_OF_ASC_NODE":331.4303,"ARG_OF_PERICENTER":94.6645,"MEAN_ANOMALY":265.4685,"EPHEMERIS_TYPE":0,"NORAD_CAT_ID":50474,"ELEMENT_SET_NO":999,"REV_AT_EPOCH":22425,"BSTAR":0.00019627585,"MEAN_MOTION_DOT":9e-7,"MEAN_MOTION_DDOT":0},{"OBJECT_NAME":"ONEWEB-0395","OBJECT_ID":"2021-132G","EPOCH":"2026-07-06T22:16:10.747488","CLASSIFICATION_TYPE":"U","MEAN_MOTION":13.11415357,"ECCENTRICITY":0.00020771,"INCLINATION":87.8878,"RA_OF_ASC_NODE":17.1359,"ARG_OF_PERICENTER":86.0441,"MEAN_ANOMALY":274.0924,"EPHEMERIS_TYPE":0,"NORAD_CAT_ID":50475,"ELEMENT_SET_NO":999,"REV_AT_EPOCH":21830,"BSTAR":-0.00083965731,"MEAN_MOTION_DOT":-0.00000285,"MEAN_MOTION_DDOT":0},{"OBJECT_NAME":"ONEWEB-0396","OBJECT_ID":"2021-132H","EPOCH":"2026-07-07T08:24:34.452000","CLASSIFICATION_TYPE":"U","MEAN_MOTION":13.18686163,"ECCENTRICITY":0.00017634,"INCLINATION":87.919,"RA_OF_ASC_NODE":331.4455,"ARG_OF_PERICENTER":91.2795,"MEAN_ANOMALY":268.854,"EPHEMERIS_TYPE":0,"NORAD_CAT_ID":50476,"ELEMENT_SET_NO":999,"REV_AT_EPOCH":22429,"BSTAR":0.00030319988,"MEAN_MOTION_DOT":0.00000132,"MEAN_MOTION_DDOT":0},{"OBJECT_NAME":"ONEWEB-0397","OBJECT_ID":"2021-132J","EPOCH":"2026-07-07T08:46:25.358592","CLASSIFICATION_TYPE":"U","MEAN_MOTION":13.18686164,"ECCENTRICITY":0.00016422,"INCLINATION":87.919,"RA_OF_ASC_NODE":331.4419,"ARG_OF_PERICENTER":92.7907,"MEAN_ANOMALY":267.3413,"EPHEMERIS_TYPE":0,"NORAD_CAT_ID":50477,"ELEMENT_SET_NO":999,"REV_AT_EPOCH":22427,"BSTAR":0.00015558149,"MEAN_MOTION_DOT":7.4e-7,"MEAN_MOTION_DDOT":0},{"OBJECT_NAME":"ONEWEB-0398","OBJECT_ID":"2021-132K","EPOCH":"2026-07-07T12:08:44.939616","CLASSIFICATION_TYPE":"U","MEAN_MOTION":13.1141716,"ECCENTRICITY":0.00021598,"INCLINATION":87.8887,"RA_OF_ASC_NODE":17.0128,"ARG_OF_PERICENTER":89.3856,"MEAN_ANOMALY":270.7519,"EPHEMERIS_TYPE":0,"NORAD_CAT_ID":50478,"ELEMENT_SET_NO":999,"REV_AT_EPOCH":21827,"BSTAR":0.0012128084,"MEAN_MOTION_DOT":0.00000443,"MEAN_MOTION_DDOT":0},{"OBJECT_NAME":"ONEWEB-0399","OBJECT_ID":"2021-132L","EPOCH":"2026-07-07T11:49:12.521856","CLASSIFICATION_TYPE":"U","MEAN_MOTION":13.11417759,"ECCENTRICITY":0.00017061,"INCLINATION":87.889,"RA_OF_ASC_NODE":17.0268,"ARG_OF_PERICENTER":72.8699,"MEAN_ANOMALY":287.2616,"EPHEMERIS_TYPE":0,"NORAD_CAT_ID":50479,"ELEMENT_SET_NO":999,"REV_AT_EPOCH":21826,"BSTAR":-0.00019131233,"MEAN_MOTION_DOT":-5.5e-7,"MEAN_MOTION_DDOT":0},{"OBJECT_NAME":"ONEWEB-0400","OBJECT_ID":"2021-132M","EPOCH":"2026-07-06T21:19:15.801312","CLASSIFICATION_TYPE":"U","MEAN_MOTION":13.18694571,"ECCENTRICITY":0.00020275,"INCLINATION":87.9192,"RA_OF_ASC_NODE":331.5261,"ARG_OF_PERICENTER":97.3096,"MEAN_ANOMALY":262.8266,"EPHEMERIS_TYPE":0,"NORAD_CAT_ID":50480,"ELEMENT_SET_NO":999,"REV_AT_EPOCH":22420,"BSTAR":0.00043275596,"MEAN_MOTION_DOT":0.00000184,"MEAN_MOTION_DDOT":0},{"OBJECT_NAME":"ONEWEB-0401","OBJECT_ID":"2021-132N","EPOCH":"2026-07-07T18:26:43.848384","CLASSIFICATION_TYPE":"U","MEAN_MOTION":13.18685898,"ECCENTRICITY":0.0001683,"INCLINATION":87.9191,"RA_OF_ASC_NODE":331.3488,"ARG_OF_PERICENTER":101.6172,"MEAN_ANOMALY":258.5149,"EPHEMERIS_TYPE":0,"NORAD_CAT_ID":50481,"ELEMENT_SET_NO":999,"REV_AT_EPOCH":22432,"BSTAR":0.000059632,"MEAN_MOTION_DOT":3.6e-7,"MEAN_MOTION_DDOT":0},{"OBJECT_NAME":"ONEWEB-0402","OBJECT_ID":"2021-132P","EPOCH":"2026-07-07T08:26:59.748288","CLASSIFICATION_TYPE":"U","MEAN_MOTION":13.18687106,"ECCENTRICITY":0.00014108,"INCLINATION":87.9189,"RA_OF_ASC_NODE":331.4208,"ARG_OF_PERICENTER":102.6254,"MEAN_ANOMALY":257.5036,"EPHEMERIS_TYPE":0,"NORAD_CAT_ID":50482,"ELEMENT_SET_NO":999,"REV_AT_EPOCH":22429,"BSTAR":0.00021263857,"MEAN_MOTION_DOT":9.7e-7,"MEAN_MOTION_DDOT":0}]}
