ONEWEB-0387             
1 49313U 21090AL  26188.74626209  .00000027  00000+0  34325-4 0  9992
2 49313  87.9181 270.3549 0002131  89.5776 270.5601 13.20773707232538
ONEWEB-0388             
1 49314U 21090AM  26188.72674301  .00000115  00000+0  25418-3 0  9997
2 49314  87.9196 300.8799 0001919  99.0597 261.0753 13.19726786229128
ONEWEB-0389             
1 50469U 21132A   26188.47367030  .00000066  00000+0  13589-3 0  9998
2 50469  87.9139   1.8316 0001863  81.5049 278.6294 13.17650228220756
ONEWEB-0390             
1 50470U 21132B   26187.94380492  .00000081  00000+0  17492-3 0  9992
2 50470  87.9138   1.9381 0002085  91.5460 268.5910 13.17650617220682
ONEWEB-0391             
1 50471U 21132C   26187.94549337  .00000013  00000+0  11362-5 0  9995
2 50471  87.9139   1.9474 0002333  72.7199 287.4188 13.17649811220684
ONEWEB-0392             
1 50472U 21132D   26188.43148945  .00000013  00000+0  22995-6 0  9996
2 50472  87.9147   1.8207 0001935  79.5074 280.6276 13.17649993220786
ONEWEB-0393             
1 50473U 21132E   26188.40701192  .00000060  00000+0  12215-3 0  9996
2 50473  87.9139   1.8411 0001883  86.3330 273.8017 13.17647584220778
ONEWEB-0394             
1 50474U 21132F   26188.35712569  .00000090  00000+0  19628-3 0  9999
2 50474  87.9191 331.4303 0001734  94.6645 265.4685 13.18683995224257
ONEWEB-0395             
1 50475U 21132G   26187.92790217 -.00000285  00000+0 -83966-3 0  9992
2 50475  87.8878  17.1359 0002077  86.0441 274.0924 13.11415357218307
ONEWEB-0396             
1 50476U 21132H   26188.35039875  .00000132  00000+0  30320-3 0  9992
2 50476  87.9190 331.4455 0001763  91.2795 268.8540 13.18686163224298
ONEWEB-0397             
1 50477U 21132J   26188.36557128  .00000074  00000+0  15558-3 0  9991
2 50477  87.9190 331.4419 0001642  92.7907 267.3413 13.18686164224278
ONEWEB-0398             
1 50478U 21132K   26188.50607569  .00000443  00000+0  12128-2 0  9992
2 50478  87.8887  17.0128 0002159  89.3856 270.7519 13.11417160218273
ONEWEB-0399             
1 50479U 21132L   26188.49250604 -.00000055  00000+0 -19131-3 0  9998
2 50479  87.8890  17.0268 0001706  72.8699 287.2616 13.11417759218266
ONEWEB-0400             
1 50480U 21132M   26187.88837733  .00000184  00000+0  43276-3 0  9994
2 50480  87.9192 331.5261 0002027  97.3096 262.8266 13.18694571224208
ONEWEB-0401             
1 50481U 21132N   26188.76856306  .00000036  00000+0  59632-4 0  9990
2 50481  87.9191 331.3488 0001683 101.6172 258.5149 13.18685898224325
ONEWEB-0402             
1 50482U 21132P   26188.35208042  .00000097  00000+0  21264-3 0  9990
2 50482  87.9189 331.4208 0001410 102.6254 257.5036 13.18687106224298
